OBJECT_NAME,OBJECT_ID,EPOCH,MEAN_MOTION,ECCENTRICITY,INCLINATION,RA_OF_ASC_NODE,ARG_OF_PERICENTER,MEAN_ANOMALY,EPHEMERIS_TYPE,CLASSIFICATION_TYPE,NORAD_CAT_ID,ELEMENT_SET_NO,REV_AT_EPOCH,BSTAR,MEAN_MOTION_DOT,MEAN_MOTION_DDOT
STARLINK-4378,2022-099M,2025-04-20T18:48:55.675008,15.01267510,.0000487,97.6534,233.2201,191.4549,168.6664,0,U,53476,999,14753,.18865E-3,.2365E-4,0
STARLINK-4412,2022-099N,2025-04-20T19:04:53.972832,15.01297525,.0001734,97.6549,233.1978,93.4807,266.6616,0,U,53477,999,14823,-.7668E-3,-.9904E-4,0
STARLINK-4433,2022-099P,2025-04-20T07:26:24.324000,15.01278088,.0002796,97.6530,232.7625,235.4952,124.6008,0,U,53478,999,14746,.8398E-3,.1075E-3,0
STARLINK-4436,2022-099Q,2025-04-20T16:59:36.053952,15.01262213,.000414,97.6537,233.1415,220.4990,139.5926,0,U,53479,999,14752,.73928E-4,.891E-5,0
STARLINK-4442,2022-099R,2025-04-20T18:40:55.089696,15.01263095,.0002167,97.6525,233.2100,235.3238,124.7782,0,U,53480,999,14753,.21418E-3,.2693E-4,0
STARLINK-4302,2022-099S,2025-04-20T07:21:03.454272,15.01270051,.0005179,97.6542,232.7441,223.3773,136.7045,0,U,53481,999,14746,.31677E-3,.4014E-4,0
STARLINK-4360,2022-099T,2025-04-20T23:05:04.646112,15.01188113,.0004557,97.6564,233.4245,158.3028,201.8390,0,U,53482,999,14756,-.36553E-3,-.4743E-4,0
STARLINK-4401,2022-099U,2025-04-20T18:13:26.670144,15.01404200,.0003965,97.6618,233.2260,187.8114,172.3049,0,U,53483,999,14752,.4314E-3,.5508E-4,0
STARLINK-4426,2022-099V,2025-04-20T07:18:22.966272,15.01262182,.0004841,97.6536,232.7419,211.1366,148.9572,0,U,53484,999,14746,-.18078E-3,-.2381E-4,0
STARLINK-4430,2022-099W,2025-04-20T07:10:25.236480,15.01264232,.0004142,97.6558,232.7399,199.7288,160.3777,0,U,53485,999,14746,.2944E-3,.3725E-4,0
STARLINK-4431,2022-099X,2025-04-20T18:27:34.669728,15.01285478,.0003705,97.6539,233.2013,230.3631,129.7266,0,U,53486,999,14753,.75122E-3,.961E-4,0
STARLINK-4432,2022-099Y,2025-04-20T18:27:56.471904,15.01263415,.0003524,97.6545,233.1834,193.8781,166.2347,0,U,53487,999,14753,.10976E-3,.1351E-4,0
STARLINK-4421,2022-099Z,2025-04-20T07:13:03.761472,15.01288465,.000315,97.6555,232.7420,218.2234,141.8768,0,U,53488,999,14746,.68106E-4,.816E-5,0
STARLINK-4392,2022-099AA,2025-04-20T07:13:25.148928,15.01255978,.0003913,97.6551,232.7229,215.7046,144.3917,0,U,53489,999,14746,.11421E-3,.1408E-4,0
STARLINK-4387,2022-099AB,2025-04-20T18:16:32.772288,15.01722859,.0002796,97.6577,233.2070,244.0742,116.0194,0,U,53490,999,14753,.46081E-2,.60369E-3,0
STARLINK-4450,2022-099AC,2025-04-20T18:03:56.497536,15.01267560,.0000773,97.6564,233.2094,299.3677,60.7470,0,U,53491,999,14753,.13409E-3,.1664E-4,0
STARLINK-4451,2022-099AD,2025-04-20T18:11:35.690208,15.01282652,.0002002,97.6562,233.2077,234.9164,125.1873,0,U,53492,999,14753,.47971E-3,.6112E-4,0
STARLINK-4361,2022-099AE,2025-04-20T06:57:04.081248,15.01265766,.0000565,97.6564,232.7353,222.6737,137.4444,0,U,53493,999,14746,.20896E-3,.2626E-4,0
STARLINK-4340,2022-099AF,2025-04-20T18:14:36.713760,15.01257510,.0000215,97.6568,233.1984,193.8903,166.2316,0,U,53494,999,14753,-.13953E-5,-.77E-6,0
STARLINK-4429,2022-099AG,2025-04-20T08:25:02.728128,15.01270626,.0000739,97.6558,232.8065,231.1919,128.9239,0,U,53495,999,14747,.29331E-3,.3711E-4,0
STARLINK-4465,2022-099AH,2025-04-20T06:54:23.668416,15.01266033,.0001092,97.6572,232.7443,199.6780,160.4402,0,U,53496,999,14746,.16782E-4,.157E-5,0
STARLINK-4453,2022-099AJ,2025-04-20T19:31:33.400128,15.01307825,.0001688,97.6556,233.2641,79.3778,280.7636,0,U,53497,999,14754,-.74366E-3,-.961E-4,0
STARLINK-4439,2022-099AK,2025-04-20T06:44:05.868672,15.01260101,.0001266,97.6554,232.7503,92.4171,267.7199,0,U,53498,999,14746,.20073E-3,.252E-4,0
STARLINK-4454,2022-099AL,2025-04-20T06:51:45.008640,15.01258032,.0001621,97.6558,232.7255,87.4379,272.7031,0,U,53499,999,14746,.89976E-4,.1097E-4,0
STARLINK-4455,2022-099AM,2025-04-20T08:22:24.542688,15.01280746,.0001481,97.6546,232.8053,83.1990,276.9403,0,U,53500,999,14747,.10276E-2,.13172E-3,0
STARLINK-4434,2022-099AN,2025-04-20T19:20:55.116672,15.01264351,.000185,97.6545,233.2614,59.7093,300.4314,0,U,53501,999,14754,.10396E-3,.1277E-4,0
STARLINK-4435,2022-099AP,2025-04-20T19:28:54.960672,15.01271156,.0002109,97.6561,233.2634,77.6466,282.4994,0,U,53502,999,14754,.33162E-3,.4204E-4,0
STARLINK-4461,2022-099AQ,2025-04-20T08:17:25.242720,15.01284059,.0001785,97.6546,232.7887,98.1971,261.9455,0,U,53503,999,14747,.22537E-3,.2839E-4,0
STARLINK-4448,2022-099AR,2025-04-20T19:26:15.113760,15.01265018,.0001957,97.6537,233.2590,81.7034,278.4412,0,U,53504,999,14754,.47943E-4,.557E-5,0
STARLINK-4446,2022-099AS,2025-04-20T19:15:36.413856,15.01272256,.0002831,97.6523,233.2514,88.9774,271.1774,0,U,53505,999,14754,.53808E-3,.6862E-4,0
STARLINK-4437,2022-099AT,2025-04-20T19:23:36.283776,15.01252873,.0002543,97.6534,233.2495,87.8515,272.3001,0,U,53506,999,14754,.48261E-3,.6144E-4,0
STARLINK-4444,2022-099AU,2025-04-20T22:00:01.999584,15.75928597,.0000984,97.6568,237.1904,12.6691,81.8226,0,U,53507,999,591,.4272E-2,.716168E-2,0
STARLINK-4443,2022-099AV,2025-04-20T19:18:15.592032,15.01258752,.0002358,97.6556,233.2569,74.0951,286.0533,0,U,53508,999,14754,.5419E-4,.637E-5,0
STARLINK-4402,2022-099AW,2025-04-20T19:10:15.696192,15.01263654,.0001602,97.6550,233.2448,90.0856,270.0552,0,U,53509,999,14754,.9081E-4,.1108E-4,0
STARLINK-4511,2022-101A,2025-04-20T22:12:37.597824,15.25872418,.0005028,53.2089,75.4128,106.4404,253.7148,0,U,53527,999,14754,.16916E-2,.43827E-3,0
STARLINK-4503,2022-101B,2025-04-20T22:12:37.501920,15.08824727,.0001981,53.2164,83.0614,98.4308,261.6909,0,U,53528,999,14743,.41658E-4,.375E-5,0
STARLINK-4478,2022-101C,2025-04-20T22:02:02.627808,15.08811705,.0001827,53.2169,83.1075,117.2197,242.8982,0,U,53529,999,14743,.5632E-3,.868E-4,0
STARLINK-4482,2022-101D,2025-04-20T22:23:16.080000,15.08841640,.0001495,53.2165,83.2498,83.9215,276.1947,0,U,53530,999,14743,.79566E-4,.979E-5,0
STARLINK-4487,2022-101E,2025-04-20T21:56:39.589440,15.08891816,.0001342,53.2169,83.1144,84.1741,275.9404,0,U,53531,999,14743,.41419E-3,.6319E-4,0
STARLINK-4483,2022-101F,2025-04-20T22:44:24.411264,15.08852003,.0001438,53.2166,82.9617,98.2215,261.8940,0,U,53532,999,14744,.15446E-3,.2172E-4,0
STARLINK-4493,2022-101G,2025-04-20T22:39:07.448544,15.08837871,.0001543,53.2170,82.9684,104.1951,255.9213,0,U,53533,999,14744,-.15368E-4,-.533E-5,0
STARLINK-4138,2022-101J,2025-04-20T03:29:12.404544,15.08849067,.0001548,53.2174,86.5656,103.0587,257.0578,0,U,53535,999,14732,.16531E-3,.2345E-4,0
STARLINK-4053,2022-101K,2025-04-20T21:58:04.634688,15.08832015,.0001454,53.2169,73.0285,107.5006,252.6145,0,U,53536,999,14757,-.77428E-4,-.152E-4,0
STARLINK-4120,2022-101L,2025-04-20T22:35:12.018912,15.08840282,.0001423,53.2167,82.9631,96.0519,264.0636,0,U,53537,999,14744,.95525E-4,.1233E-4,0
STARLINK-4118,2022-101M,2025-04-20T22:03:22.062240,15.08843858,.0001361,53.2172,73.0922,105.7976,254.3166,0,U,53538,999,14826,.13169E-3,.1809E-4,0
STARLINK-4123,2022-101N,2025-04-20T22:28:31.587744,15.08829497,.000131,53.2170,83.0127,97.4896,262.6245,0,U,53539,999,14744,.19738E-3,.2854E-4,0
STARLINK-4486,2022-101P,2025-04-20T05:17:57.037056,15.08839971,.0001669,53.2178,76.5830,97.4181,262.7001,0,U,53540,999,14746,.11104E-3,.148E-4,0
STARLINK-4485,2022-101Q,2025-04-20T22:17:55.923936,15.08839596,.0001424,53.2170,83.0469,98.8133,261.3021,0,U,53541,999,14813,.16762E-4,-.21E-6,0
STARLINK-4489,2022-101R,2025-04-20T04:18:13.097664,15.08852005,.0001664,53.2167,76.4140,96.1840,263.9342,0,U,53542,999,14746,.16397E-3,.2323E-4,0
STARLINK-4297,2022-101S,2025-04-20T22:08:40.416864,15.08837132,.0001582,53.2171,73.1415,103.2456,256.8713,0,U,53543,999,14826,.96365E-5,-.135E-5,0
STARLINK-4303,2022-101T,2025-04-20T21:36:51.564384,15.08842339,.0001724,53.2179,73.1747,102.4718,257.6467,0,U,53544,999,14824,.2382E-4,.91E-6,0
STARLINK-4475,2022-101U,2025-04-20T21:52:45.863616,15.08845777,.0001706,53.2171,73.1241,96.8414,263.2772,0,U,53545,999,14826,-.67842E-4,-.1368E-4,0
STARLINK-4477,2022-101V,2025-04-20T04:30:04.174848,15.08834281,.0001491,53.2180,65.9078,88.6826,271.4337,0,U,53546,999,14761,.66675E-4,.773E-5,0
STARLINK-4474,2022-101W,2025-04-20T04:12:55.028160,15.08839873,.0001437,53.2167,76.4290,93.4925,266.6231,0,U,53547,999,14746,.93687E-4,.1203E-4,0
STARLINK-4513,2022-101X,2025-04-20T21:20:58.442784,15.08834694,.0001451,53.2170,73.2233,95.6898,264.4260,0,U,53548,999,14757,-.21672E-3,-.3735E-4,0
STARLINK-4518,2022-101Z,2025-04-20T05:21:48.929472,15.08861188,.0001403,53.2158,76.2154,92.4973,267.6180,0,U,53550,999,14813,.35717E-3,.5404E-4,0
STARLINK-4514,2022-101AA,2025-04-20T21:26:15.836640,15.08842669,.0001545,53.2174,73.2077,94.0931,266.0238,0,U,53551,999,14823,-.79894E-5,-.415E-5,0
STARLINK-4495,2022-101AB,2025-04-20T05:11:13.035840,15.08835108,.0001406,53.2175,76.2472,94.2278,265.8875,0,U,53552,999,14747,.24498E-4,.102E-5,0
STARLINK-4501,2022-101AC,2025-04-20T05:00:35.482464,15.08837825,.0001347,53.2169,76.1553,93.1940,266.9206,0,U,53553,999,14747,.10309E-3,.1353E-4,0
STARLINK-4506,2022-101AD,2025-04-20T05:01:59.483136,15.08838504,.0001386,53.2173,76.2866,97.6081,262.5069,0,U,53554,999,14747,.11072E-3,.1475E-4,0
STARLINK-4504,2022-101AE,2025-04-20T05:16:30.405504,15.08839438,.0001366,53.2171,76.2325,91.5346,268.5802,0,U,53555,999,14747,.10526E-3,.1388E-4,0
STARLINK-4505,2022-101AF,2025-04-20T22:19:15.641760,15.08837486,.0001486,53.2179,73.0412,102.8424,257.2734,0,U,53556,999,14758,.10581E-4,-.12E-5,0
STARLINK-4502,2022-101AG,2025-04-20T20:59:46.372992,15.08852061,.0001979,53.2174,73.2918,76.9569,283.1644,0,U,53557,999,14822,.52514E-4,.548E-5,0
STARLINK-4494,2022-101AH,2025-04-20T03:17:53.520000,15.08837527,.0001548,53.2176,71.3232,100.4280,259.6887,0,U,53558,999,14819,.4925E-4,.496E-5,0
STARLINK-4508,2022-101AJ,2025-04-20T04:55:18.740064,15.08836708,.0001487,53.2181,76.2955,85.5841,274.5321,0,U,53559,999,14747,.64516E-4,.739E-5,0
